NORAD_CAT_ID,OBJECT_NAME,OBJECT_TYPE,EPOCH,MEAN_MOTION,ECCENTRICITY,INCLINATION,RA_OF_ASC_NODE,ARG_OF_PERICENTER,MEAN_ANOMALY,BSTAR,MEAN_MOTION_DOT,MEAN_MOTION_DDOT,TLE_LINE0,TLE_LINE1,TLE_LINE2,SEMIMAJOR_AXIS,PERIOD,APOGEE,PERIGEE,DECAYED
54806.0,STARLINK-5412,PAYLOAD,2023-04-05 15:07:32,15.0884229,0.0001322,53.2172,147.9018,107.5519,252.5618,-5.0031e-06,-3.68e-06,0.0,0 STARLINK-5412,1 54806U 22175BA  23095.63023693 -.00000368  00000-0 -50031-5 0  9994,2 54806  53.2172 147.9018 0001322 107.5519 252.5618 15.08842290 18749,6917.873,95.437,540.653,538.824,0.0
54806.0,STARLINK-5412,PAYLOAD,2023-04-06 11:47:33,15.08835826,0.0001496,53.218,144.0373,108.6453,251.4702,-1.4633e-05,-5.21e-06,0.0,0 STARLINK-5412,1 54806U 22175BA  23096.49136417 -.00000521  00000-0 -14633-4 0  9996,2 54806  53.2180 144.0373 0001496 108.6453 251.4702 15.08835826 18874,6917.893,95.438,540.793,538.723,0.0
54806.0,STARLINK-5412,PAYLOAD,2023-04-06 14:58:19,15.08844197,0.0001227,53.2172,143.4421,90.6011,269.5121,-1.158e-05,-4.72e-06,0.0,0 STARLINK-5412,1 54806U 22175BA  23096.62383829 -.00000472  00000-0 -11580-4 0  9995,2 54806  53.2172 143.4421 0001227  90.6011 269.5121 15.08844197 16733,6917.868,95.437,540.581,538.884,0.0
54806.0,STARLINK-5412,PAYLOAD,2023-04-07 03:41:25,15.08828973,0.0001221,53.217,141.0636,96.7467,263.3664,5.0657e-05,5.18e-06,0.0,0 STARLINK-5412,1 54806U 22175BA  23097.15376716  .00000518  00000-0  50657-4 0  9998,2 54806  53.2170 141.0636 0001221  96.7467 263.3664 15.08828973 16816,6917.914,95.438,540.624,538.934,0.0
54806.0,STARLINK-5412,PAYLOAD,2023-04-07 11:38:20,15.08839343,0.0001159,53.2173,139.5771,94.5781,265.5343,6.6979e-05,7.78e-06,0.0,0 STARLINK-5412,1 54806U 22175BA  23097.48496133  .00000778  00000-0  66979-4 0  9992,2 54806  53.2173 139.5771 0001159  94.5781 265.5343 15.08839343 16862,6917.882,95.438,540.549,538.946,0.0
54806.0,STARLINK-5412,PAYLOAD,2023-04-07 13:13:43,15.08842395,0.000117,53.2175,139.2801,90.3742,269.7385,9.3175e-05,1.195e-05,0.0,0 STARLINK-5412,1 54806U 22175BA  23097.55119875  .00001195  00000-0  93175-4 0  9997,2 54806  53.2175 139.2801 0001170  90.3742 269.7385 15.08842395 19034,6917.873,95.437,540.547,538.929,0.0
54806.0,STARLINK-5412,PAYLOAD,2023-04-08 11:29:07,15.08839773,0.000124,53.2175,135.1166,91.0283,269.0851,3.5919e-05,2.84e-06,0.0,0 STARLINK-5412,1 54806U 22175BA  23098.47856328  .00000284  00000-0  35919-4 0  9990,2 54806  53.2175 135.1166 0001240  91.0283 269.0851 15.08839773 19171,6917.881,95.438,540.604,538.888,0.0
54806.0,STARLINK-5412,PAYLOAD,2023-04-08 19:26:03,15.08838396,0.0001242,53.2175,133.6299,84.4373,275.676,5.8267e-07,-2.79e-06,0.0,0 STARLINK-5412,1 54806U 22175BA  23098.80976553 -.00000279  00000-0  58267-6 0  9998,2 54806  53.2175 133.6299 0001242  84.4373 275.6760 15.08838396 17067,6917.885,95.438,540.609,538.891,0.0
54806.0,STARLINK-5412,PAYLOAD,2023-04-09 03:23:00,15.08812419,0.0001001,53.2174,132.1427,89.5494,270.5613,0.00033357,5.021e-05,0.0,0 STARLINK-5412,1 54806U 22175BA  23099.14097307  .00005021  00000-0  33357-3 0  9996,2 54806  53.2174 132.1427 0001001  89.5494 270.5613 15.08812419 17111,6917.965,95.439,540.522,539.137,0.0
54806.0,STARLINK-5412,PAYLOAD,2023-04-09 11:19:54,15.08842519,0.0001204,53.217,130.6555,85.5341,274.5789,7.0823e-07,-2.77e-06,0.0,0 STARLINK-5412,1 54806U 22175BA  23099.47216310 -.00000277  00000-0  70823-6 0  9990,2 54806  53.2170 130.6555 0001204  85.5341 274.5789 15.08842519 17161,6917.873,95.437,540.571,538.905,0.0
54806.0,STARLINK-5412,PAYLOAD,2023-04-09 14:30:40,15.08845386,0.0001174,53.217,130.0607,85.1558,274.9568,9.4244e-06,-1.38e-06,0.0,0 STARLINK-5412,1 54806U 22175BA  23099.60464046 -.00000138  00000-0  94244-5 0  9994,2 54806  53.2170 130.0607 0001174  85.1558 274.9568 15.08845386 19341,6917.864,95.437,540.541,538.917,0.0
54806.0,STARLINK-5412,PAYLOAD,2023-04-10 11:10:41,15.08841347,0.0001206,53.2167,126.1947,85.3546,274.7584,2.3447e-05,8.5e-07,0.0,0 STARLINK-5412,1 54806U 22175BA  23100.46576235  .00000085  00000-0  23447-4 0  9991,2 54806  53.2167 126.1947 0001206  85.3546 274.7584 15.08841347 19478,6917.876,95.437,540.576,538.907,0.0
54806.0,STARLINK-5412,PAYLOAD,2023-04-10 19:07:37,15.08841799,0.0001224,53.2168,124.7081,84.4694,275.6437,3.2305e-05,2.26e-06,0.0,0 STARLINK-5412,1 54806U 22175BA  23100.79696118  .00000226  00000-0  32305-4 0  9990,2 54806  53.2168 124.7081 0001224  84.4694 275.6437 15.08841799 19520,6917.875,95.437,540.587,538.893,0.0
54806.0,STARLINK-5412,PAYLOAD,2023-04-11 01:29:10,15.0882554,0.0001167,53.2164,123.5182,93.1684,266.9441,0.00021351,3.11e-05,0.0,0 STARLINK-5412,1 54806U 22175BA  23101.06192444  .00003110  00000-0  21351-3 0  9997,2 54806  53.2164 123.5182 0001167  93.1684 266.9441 15.08825540 17406,6917.925,95.438,540.597,538.982,0.0
54806.0,STARLINK-5412,PAYLOAD,2023-04-11 11:01:28,15.08843701,0.0001251,53.2163,121.7339,90.9846,269.129,3.8365e-05,3.23e-06,0.0,0 STARLINK-5412,1 54806U 22175BA  23101.45935875  .00000323  00000-0  38365-4 0  9990,2 54806  53.2163 121.7339 0001251  90.9846 269.1290 15.08843701 17460,6917.869,95.437,540.6,538.869,0.0
54806.0,STARLINK-5412,PAYLOAD,2023-04-11 12:36:51,15.08845977,0.0001265,53.2165,121.4367,90.6266,269.4871,5.6224e-05,6.07e-06,0.0,0 STARLINK-5412,1 54806U 22175BA  23101.52559643  .00000607  00000-0  56224-4 0  9992,2 54806  53.2165 121.4367 0001265  90.6266 269.4871 15.08845977 19634,6917.862,95.437,540.602,538.852,0.0
54806.0,STARLINK-5412,PAYLOAD,2023-04-12 04:30:43,15.08834858,0.0001451,53.2159,118.4624,101.8101,258.3054,-4.7053e-05,-1.037e-05,0.0,0 STARLINK-5412,1 54806U 22175BA  23102.18800718 -.00001037  00000-0 -47053-4 0  9997,2 54806  53.2159 118.4624 0001451 101.8101 258.3054 15.08834858 17576,6917.896,95.438,540.765,538.757,0.0
54806.0,STARLINK-5412,PAYLOAD,2023-04-12 12:27:39,15.08837637,0.0001265,53.2168,116.9764,95.4755,264.6381,-2.2061e-05,-6.39e-06,0.0,0 STARLINK-5412,1 54806U 22175BA  23102.51920543 -.00000639  00000-0 -22061-4 0  9992,2 54806  53.2168 116.9764 0001265  95.4755 264.6381 15.08837637 19786,6917.888,95.438,540.628,538.877,0.0
54806.0,STARLINK-5412,PAYLOAD,2023-04-13 09:07:40,15.08839215,0.0001301,53.2169,113.1103,100.8603,259.2536,-1.3546e-05,-5.03e-06,0.0,0 STARLINK-5412,1 54806U 22175BA  23103.38032574 -.00000503  00000-0 -13546-4 0  9994,2 54806  53.2169 113.1103 0001301 100.8603 259.2536 15.08839215 19918,6917.883,95.438,540.648,538.848,0.0
54806.0,STARLINK-5412,PAYLOAD,2023-04-13 17:04:36,15.08837615,0.0001267,53.2171,111.6237,108.4472,251.6657,-5.1926e-05,-1.114e-05,0.0,0 STARLINK-5412,1 54806U 22175BA  23103.71152813 -.00001114  00000-0 -51926-4 0  9993,2 54806  53.2171 111.6237 0001267 108.4472 251.6657 15.08837615 17809,6917.888,95.438,540.629,538.876,0.0
54806.0,STARLINK-5412,PAYLOAD,2023-04-14 07:23:04,15.08834677,0.0001274,53.2172,108.9472,102.5537,257.5598,3.7487e-05,3.09e-06,0.0,0 STARLINK-5412,1 54806U 22175BA  23104.30768974  .00000309  00000-0  37487-4 0  9999,2 54806  53.2172 108.9472 0001274 102.5537 257.5598 15.08834677 20050,6917.897,95.438,540.643,538.88,0.0
54806.0,STARLINK-5412,PAYLOAD,2023-04-15 08:49:14,15.08839412,0.0001249,53.2173,104.1898,97.9318,262.1815,3.7142e-05,3.03e-06,0.0,0 STARLINK-5412,1 54806U 22175BA  23105.36753022  .00000303  00000-0  37142-4 0  9996,2 54806  53.2173 104.1898 0001249  97.9318 262.1815 15.08839412 20211,6917.882,95.438,540.611,538.883,0.0
54806.0,STARLINK-5412,PAYLOAD,2023-04-15 16:46:10,15.08835856,0.0001239,53.2175,102.703,95.4347,264.6787,1.6647e-05,-2.3e-07,0.0,0 STARLINK-5412,1 54806U 22175BA  23105.69873370 -.00000023  00000-0  16647-4 0  9998,2 54806  53.2175 102.7030 0001239  95.4347 264.6787 15.08835856 20267,6917.893,95.438,540.615,538.901,0.0
54806.0,STARLINK-5412,PAYLOAD,2023-04-16 07:04:38,15.08841526,0.0001234,53.2179,100.027,96.4939,263.6194,5.7989e-05,6.35e-06,0.0,0 STARLINK-5412,1 54806U 22175BA  23106.29488963  .00000635  00000-0  57989-4 0  9997,2 54806  53.2179 100.0270 0001234  96.4939 263.6194 15.08841526 20353,6917.876,95.437,540.594,538.887,0.0
54806.0,STARLINK-5412,PAYLOAD,2023-04-16 16:36:57,15.08846559,0.0001243,53.2178,98.2413,124.1472,235.9638,-8.8142e-05,-1.691e-05,0.0,0 STARLINK-5412,1 54806U 22175BA  23106.69232918 -.00001691  00000-0 -88142-4 0  9998,2 54806  53.2178  98.2413 0001243 124.1472 235.9638 15.08846559 20413,6917.86,95.437,540.585,538.865,0.0
54806.0,STARLINK-5412,PAYLOAD,2023-04-17 06:55:26,15.08838577,0.0001235,53.2183,95.5678,88.014,272.0994,4.4296e-06,-2.17e-06,0.0,0 STARLINK-5412,1 54806U 22175BA  23107.28849591 -.00000217  00000-0  44296-5 0  9990,2 54806  53.2183  95.5678 0001235  88.0140 272.0994 15.08838577 20501,6917.885,95.438,540.604,538.895,0.0
54806.0,STARLINK-5412,PAYLOAD,2023-04-17 16:27:45,15.08835148,0.0001321,53.2172,93.7824,81.9863,278.1279,-1.2548e-05,-4.88e-06,0.0,0 STARLINK-5412,1 54806U 22175BA  23107.68593898 -.00000488  00000-0 -12548-4 0  9995,2 54806  53.2172  93.7824 0001321  81.9863 278.1279 15.08835148 20562,6917.895,95.438,540.674,538.846,0.0
54806.0,STARLINK-5412,PAYLOAD,2023-04-18 08:21:36,15.0884156,0.0001127,53.2169,90.8088,90.256,269.8561,3.4521e-06,-2.33e-06,0.0,0 STARLINK-5412,1 54806U 22175BA  23108.34833500 -.00000233  00000-0  34521-5 0  9999,2 54806  53.2169  90.8088 0001127  90.2560 269.8561 15.08841560 20666,6917.876,95.437,540.52,538.961,0.0
54806.0,STARLINK-5412,PAYLOAD,2023-04-18 16:18:31,15.08843874,0.0001162,53.2174,89.3224,88.7,271.4125,5.1922e-06,-2.05e-06,0.0,0 STARLINK-5412,1 54806U 22175BA  23108.67953287 -.00000205  00000-0  51922-5 0  9993,2 54806  53.2174  89.3224 0001162  88.7000 271.4125 15.08843874 20718,6917.869,95.437,540.537,538.93,0.0
54806.0,STARLINK-5412,PAYLOAD,2023-04-19 08:12:22,15.08843992,0.0001288,53.2176,86.3476,96.0859,264.028,7.9928e-05,9.85e-06,0.0,0 STARLINK-5412,1 54806U 22175BA  23109.34193094  .00000985  00000-0  79928-4 0  9999,2 54806  53.2176  86.3476 0001288  96.0859 264.0280 15.08843992 20811,6917.868,95.437,540.624,538.842,0.0
